OBJECT_NAME,OBJECT_ID,EPOCH,MEAN_MOTION,ECCENTRICITY,INCLINATION,RA_OF_ASC_NODE,ARG_OF_PERICENTER,MEAN_ANOMALY,EPHEMERIS_TYPE,CLASSIFICATION_TYPE,NORAD_CAT_ID,ELEMENT_SET_NO,REV_AT_EPOCH,BSTAR,MEAN_MOTION_DOT,MEAN_MOTION_DDOT
STARLINK-32142,2024-132P,2026-06-18T14:20:02.266080,15.30205226,.00009937,53.1597,303.4507,107.0164,253.0946,0,U,60291,999,10701,-.46712325E-4,-.1742E-4,0
STARLINK-32149,2024-132Q,2026-06-18T14:41:09.820608,15.31724262,.00009047,53.1605,303.5494,93.5323,266.5782,0,U,60292,999,10701,-.14689634E-3,-.4924E-4,0
STARLINK-32159,2024-132R,2026-06-18T09:34:51.064032,15.30193915,.00009026,53.1603,304.3430,97.2030,262.9073,0,U,60293,999,10698,-.6568688E-5,-.553E-5,0
STARLINK-32150,2024-132S,2026-06-18T14:47:51.628992,15.31744825,.0001751,53.1615,303.5750,153.4565,206.6527,0,U,60294,999,10701,-.30432985E-3,-.981E-4,0
STARLINK-32126,2024-132T,2026-06-18T14:27:43.064928,15.31704805,.00010577,53.1622,303.4851,90.3360,269.7763,0,U,60295,999,10701,.12810698E-4,.33E-6,0
STARLINK-32143,2024-132U,2026-06-17T14:44:51.995616,15.31703678,.0001212,53.1626,307.9901,110.8675,249.2456,0,U,60296,999,10686,.48034E-4,.1126E-4,0
STARLINK-32034,2024-132V,2026-06-18T15:27:35.189856,15.31708913,.00011594,53.1629,303.0371,90.0992,270.0142,0,U,60297,999,10702,-.76404857E-4,-.2736E-4,0
STARLINK-32124,2024-132W,2026-06-18T09:25:41.449440,15.31684961,.00010227,53.1612,304.3133,70.9943,289.1169,0,U,60298,999,10698,-.57429E-5,-.543E-5,0
STARLINK-32151,2024-132X,2026-06-18T13:54:49.395168,15.30196147,.00012334,53.1618,275.3616,82.8842,277.2299,0,U,60299,999,10740,-.10209582E-4,-.661E-5,0
STARLINK-32134,2024-132Y,2026-06-17T15:22:40.310112,15.30190116,.00012307,53.1609,308.1472,94.1420,265.9721,0,U,60300,999,10686,.18678023E-4,.194E-5,0
STARLINK-11147 [DTC],2024-133A,2026-06-17T19:03:01.969056,15.69689279,.00006891,53.1576,12.9647,71.5226,288.5867,0,U,60301,999,10945,.33389995E-4,.3455E-4,0
STARLINK-11128 [DTC],2024-133B,2026-06-17T20:27:38.890080,15.69714189,.00009496,53.1595,12.6194,82.0855,278.0271,0,U,60302,999,10946,-.6971886E-5,-.1433E-4,0
STARLINK-11227 [DTC],2024-133C,2026-06-17T23:23:56.650272,15.69712481,.00009051,53.1595,11.9576,91.2807,268.8315,0,U,60303,999,10956,.560668E-5,.91E-6,0
STARLINK-11224 [DTC],2024-133D,2026-06-17T23:16:52.715712,15.69714943,.00008188,53.1582,11.9232,80.4828,279.6283,0,U,60304,999,10956,.4645675E-5,-.25E-6,0
STARLINK-11115 [DTC],2024-133E,2026-06-18T06:48:13.845312,15.69718985,.00009705,53.1595,10.3217,100.7634,259.3493,0,U,60305,999,10953,.3784718E-5,-.13E-5,0
STARLINK-11109 [DTC],2024-133F,2026-06-18T06:41:11.740704,15.69665238,.00013833,53.1589,10.2858,126.2565,233.8580,0,U,60306,999,10953,.78865482E-4,.8958E-4,0
STARLINK-11223 [DTC],2024-133G,2026-06-18T12:33:46.915488,15.69711223,.00009283,53.1592,8.9665,63.0098,297.1015,0,U,60307,999,10957,.396481E-6,-.54E-5,0
STARLINK-11192 [DTC],2024-133H,2026-06-17T22:55:42.796416,15.69701984,.00010667,53.1592,11.8228,77.4294,282.6843,0,U,60308,999,10948,-.1695332E-5,-.794E-5,0
STARLINK-11213 [DTC],2024-133J,2026-06-17T22:41:33.730656,15.69708894,.00007837,53.1579,11.7573,76.3866,283.7239,0,U,60309,999,10948,.4250649E-5,-.73E-6,0
STARLINK-11200 [DTC],2024-133K,2026-06-17T22:34:30.080352,15.69710769,.00008953,53.1586,11.7260,88.7464,271.3656,0,U,60310,999,10948,.8137453E-5,.398E-5,0
STARLINK-11206 [DTC],2024-133M,2026-06-17T20:48:49.923072,15.69710345,.00009227,53.1593,12.7085,98.3731,261.7392,0,U,60312,999,10946,.3501465E-5,-.164E-5,0
STARLINK-11205 [DTC],2024-133N,2026-06-17T23:45:07.864704,15.69715361,.00009668,53.1591,12.0455,61.6424,298.4691,0,U,60313,999,10948,.13977791E-4,.1106E-4,0
STARLINK-32191,2024-133P,2026-06-18T11:28:59.548800,15.30195542,.00011955,53.1595,188.7546,88.2558,271.8580,0,U,60314,999,10707,.5427884E-4,.1249E-4,0
STARLINK-32194,2024-133Q,2026-06-18T07:08:06.747648,15.30190037,.00010464,53.1596,189.7617,80.4190,279.6929,0,U,60315,999,10704,-.326493E-6,-.369E-5,0
STARLINK-32192,2024-133R,2026-06-18T10:57:05.034528,15.30194224,.00012308,53.1594,188.6211,76.7970,283.3168,0,U,60316,999,10716,-.57525566E-4,-.2062E-4,0
STARLINK-32189,2024-133S,2026-06-18T07:05:03.168384,15.30182129,.00013622,53.1592,189.7482,103.7070,256.4083,0,U,60317,999,10713,-.77502548E-4,-.2653E-4,0
STARLINK-32190,2024-133T,2026-06-18T11:33:33.013440,15.30200987,.00015147,53.1609,188.7765,105.0721,255.0447,0,U,60318,999,10707,-.90455353E-4,-.3037E-4,0
STARLINK-32182,2024-133U,2026-06-18T13:21:14.657760,15.30229079,.00012351,53.1571,188.5347,84.2875,275.8266,0,U,60319,999,10708,-.11947615E-2,-.35608E-3,0
STARLINK-32199,2024-133V,2026-06-18T08:30:00.735552,15.30193562,.00012098,53.1594,189.4034,105.1290,254.9845,0,U,60320,999,10705,-.10933763E-4,-.683E-5,0
STARLINK-32198,2024-133W,2026-06-18T13:24:52.161984,15.30899878,.00016994,53.1597,188.5510,79.7044,280.4149,0,U,60321,999,10717,.30177094E-2,.92112E-3,0
