[
  {
    "name": "STARLINK-32142",
    "noradId": "60291",
    "line1": "1 60291U 24132P   26169.59724845 -.00001742  00000+0 -46712-4 0  9997",
    "line2": "2 60291  53.1597 303.4507 0000993 107.0164 253.0946 15.30205226107016"
  },
  {
    "name": "STARLINK-32149",
    "noradId": "60292",
    "line1": "1 60292U 24132Q   26169.61191922 -.00004924  00000+0 -14690-3 0  9999",
    "line2": "2 60292  53.1605 303.5494 0000904  93.5323 266.5782 15.31724262107015"
  },
  {
    "name": "STARLINK-32159",
    "noradId": "60293",
    "line1": "1 60293U 24132R   26169.39920213 -.00000553  00000+0 -65687-5 0  9996",
    "line2": "2 60293  53.1603 304.3430 0000902  97.2030 262.9073 15.30193915106989"
  },
  {
    "name": "STARLINK-32150",
    "noradId": "60294",
    "line1": "1 60294U 24132S   26169.61656978 -.00009810  00000+0 -30433-3 0  9990",
    "line2": "2 60294  53.1615 303.5750 0001751 153.4565 206.6527 15.31744825107017"
  },
  {
    "name": "STARLINK-32126",
    "noradId": "60295",
    "line1": "1 60295U 24132T   26169.60258177  .00000033  00000+0  12811-4 0  9996",
    "line2": "2 60295  53.1622 303.4851 0001057  90.3360 269.7763 15.31704805107014"
  },
  {
    "name": "STARLINK-32143",
    "noradId": "60296",
    "line1": "1 60296U 24132U   26168.61449069  .00001126  00000+0  48034-4 0  9999",
    "line2": "2 60296  53.1626 307.9901 0001212 110.8675 249.2456 15.31703678106865"
  },
  {
    "name": "STARLINK-32034",
    "noradId": "60297",
    "line1": "1 60297U 24132V   26169.64415729 -.00002736  00000+0 -76405-4 0  9993",
    "line2": "2 60297  53.1629 303.0371 0001159  90.0992 270.0142 15.31708913107028"
  },
  {
    "name": "STARLINK-32124",
    "noradId": "60298",
    "line1": "1 60298U 24132W   26169.39284085 -.00000543  00000+0 -57429-5 0  9995",
    "line2": "2 60298  53.1612 304.3133 0001022  70.9943 289.1169 15.31684961106983"
  },
  {
    "name": "STARLINK-32151",
    "noradId": "60299",
    "line1": "1 60299U 24132X   26169.57973837 -.00000661  00000+0 -10210-4 0  9993",
    "line2": "2 60299  53.1618 275.3616 0001233  82.8842 277.2299 15.30196147107400"
  },
  {
    "name": "STARLINK-32134",
    "noradId": "60300",
    "line1": "1 60300U 24132Y   26168.64074433  .00000194  00000+0  18678-4 0  9992",
    "line2": "2 60300  53.1609 308.1472 0001230  94.1420 265.9721 15.30190116106866"
  },
  {
    "name": "STARLINK-11147 [DTC]",
    "noradId": "60301",
    "line1": "1 60301U 24133A   26168.79377279  .00003455  00000+0  33390-4 0  9995",
    "line2": "2 60301  53.1576  12.9647 0000689  71.5226 288.5867 15.69689279109459"
  },
  {
    "name": "STARLINK-11128 [DTC]",
    "noradId": "60302",
    "line1": "1 60302U 24133B   26168.85253345 -.00001433  00000+0 -69719-5 0  9991",
    "line2": "2 60302  53.1595  12.6194 0000949  82.0855 278.0271 15.69714189109462"
  },
  {
    "name": "STARLINK-11227 [DTC]",
    "noradId": "60303",
    "line1": "1 60303U 24133C   26168.97496123  .00000091  00000+0  56067-5 0  9997",
    "line2": "2 60303  53.1595  11.9576 0000905  91.2807 268.8315 15.69712481109560"
  },
  {
    "name": "STARLINK-11224 [DTC]",
    "noradId": "60304",
    "line1": "1 60304U 24133D   26168.97005458 -.00000025  00000+0  46457-5 0  9995",
    "line2": "2 60304  53.1582  11.9232 0000818  80.4828 279.6283 15.69714943109561"
  },
  {
    "name": "STARLINK-11115 [DTC]",
    "noradId": "60305",
    "line1": "1 60305U 24133E   26169.28349358 -.00000130  00000+0  37847-5 0  9991",
    "line2": "2 60305  53.1595  10.3217 0000970 100.7634 259.3493 15.69718985109537"
  },
  {
    "name": "STARLINK-11109 [DTC]",
    "noradId": "60306",
    "line1": "1 60306U 24133F   26169.27860811  .00008958  00000+0  78865-4 0  9992",
    "line2": "2 60306  53.1589  10.2858 0001383 126.2565 233.8580 15.69665238109532"
  },
  {
    "name": "STARLINK-11223 [DTC]",
    "noradId": "60307",
    "line1": "1 60307U 24133G   26169.52345967 -.00000540  00000+0  39648-6 0  9999",
    "line2": "2 60307  53.1592   8.9665 0000928  63.0098 297.1015 15.69711223109576"
  },
  {
    "name": "STARLINK-11192 [DTC]",
    "noradId": "60308",
    "line1": "1 60308U 24133H   26168.95535644 -.00000794  00000+0 -16953-5 0  9994",
    "line2": "2 60308  53.1592  11.8228 0001066  77.4294 282.6843 15.69701984109487"
  },
  {
    "name": "STARLINK-11213 [DTC]",
    "noradId": "60309",
    "line1": "1 60309U 24133J   26168.94552929 -.00000073  00000+0  42506-5 0  9991",
    "line2": "2 60309  53.1579  11.7573 0000783  76.3866 283.7239 15.69708894109481"
  },
  {
    "name": "STARLINK-11200 [DTC]",
    "noradId": "60310",
    "line1": "1 60310U 24133K   26168.94062593  .00000398  00000+0  81375-5 0  9992",
    "line2": "2 60310  53.1586  11.7260 0000895  88.7464 271.3656 15.69710769109489"
  },
  {
    "name": "STARLINK-11206 [DTC]",
    "noradId": "60312",
    "line1": "1 60312U 24133M   26168.86724448 -.00000164  00000+0  35015-5 0  9991",
    "line2": "2 60312  53.1593  12.7085 0000922  98.3731 261.7392 15.69710345109468"
  },
  {
    "name": "STARLINK-11205 [DTC]",
    "noradId": "60313",
    "line1": "1 60313U 24133N   26168.98967436  .00001106  00000+0  13978-4 0  9990",
    "line2": "2 60313  53.1591  12.0455 0000966  61.6424 298.4691 15.69715361109485"
  },
  {
    "name": "STARLINK-32191",
    "noradId": "60314",
    "line1": "1 60314U 24133P   26169.47846700  .00001249  00000+0  54279-4 0  9993",
    "line2": "2 60314  53.1595 188.7546 0001195  88.2558 271.8580 15.30195542107076"
  },
  {
    "name": "STARLINK-32194",
    "noradId": "60315",
    "line1": "1 60315U 24133Q   26169.29730032 -.00000369  00000+0 -32649-6 0  9997",
    "line2": "2 60315  53.1596 189.7617 0001046  80.4190 279.6929 15.30190037107043"
  },
  {
    "name": "STARLINK-32192",
    "noradId": "60316",
    "line1": "1 60316U 24133R   26169.45630827 -.00002062  00000+0 -57526-4 0  9998",
    "line2": "2 60316  53.1594 188.6211 0001230  76.7970 283.3168 15.30194224107161"
  },
  {
    "name": "STARLINK-32189",
    "noradId": "60317",
    "line1": "1 60317U 24133S   26169.29517556 -.00002653  00000+0 -77503-4 0  9997",
    "line2": "2 60317  53.1592 189.7482 0001362 103.7070 256.4083 15.30182129107135"
  },
  {
    "name": "STARLINK-32190",
    "noradId": "60318",
    "line1": "1 60318U 24133T   26169.48163210 -.00003037  00000+0 -90455-4 0  9991",
    "line2": "2 60318  53.1609 188.7765 0001514 105.0721 255.0447 15.30200987107070"
  },
  {
    "name": "STARLINK-32182",
    "noradId": "60319",
    "line1": "1 60319U 24133U   26169.55641965 -.00035608  00000+0 -11948-2 0  9995",
    "line2": "2 60319  53.1571 188.5347 0001235  84.2875 275.8266 15.30229079107084"
  },
  {
    "name": "STARLINK-32199",
    "noradId": "60320",
    "line1": "1 60320U 24133V   26169.35417518 -.00000683  00000+0 -10934-4 0  9991",
    "line2": "2 60320  53.1594 189.4034 0001209 105.1290 254.9845 15.30193562107054"
  },
  {
    "name": "STARLINK-32198",
    "noradId": "60321",
    "line1": "1 60321U 24133W   26169.55893706  .00092112  00000+0  30177-2 0  9996",
    "line2": "2 60321  53.1597 188.5510 0001699  79.7044 280.4149 15.30899878107170"
  }
]